ORBCOMM FM20 [+]        
1 25416U 98046D   24112.09930329  .00003026  00000+0  10991-2 0  9992
2 25416  44.9955  16.9506 0001094 332.8621  27.2169 14.35116185343587
ORBCOMM FM16 [-]        
1 25417U 98046E   24112.55801229  .00005224  00000+0  18258-2 0  9996
2 25417  44.9956  10.6960 0004487 340.3627  19.7047 14.36069726343583
ORBCOMM FM15 [-]        
1 25418U 98046F   24112.09350831  .00003809  00000+0  13523-2 0  9991
2 25418  44.9986  16.9056 0004261 339.3355  20.7319 14.35793135343523
ORBCOMM FM14 [-]        
1 25419U 98046G   24112.15013545  .00004451  00000+0  15669-2 0  9994
2 25419  44.9975  15.7794 0003031 330.6686 183.1386 14.35952901343484
ORBCOMM FM13 [+]        
1 25420U 98046H   24112.08693812  .00003814  00000+0  13686-2 0  9998
2 25420  44.9985  20.8415 0005284 322.6596  37.3883 14.35252469342547
ORBCOMM FM21 [-]        
1 25475U 98053A   24112.03671713  .00003304  00000+0  11936-2 0  9997
2 25475  45.0071 105.3692 0002737 289.1546  70.9004 14.35195526336555
ORBCOMM FM22 [-]        
1 25476U 98053B   24112.02139522  .00004162  00000+0  14754-2 0  9998
2 25476  45.0064 102.8059 0004188 280.3142  79.7233 14.35705557336545
ORBCOMM FM23 [-]        
1 25477U 98053C   24112.34394984  .00003156  00000+0  11413-2 0  9990
2 25477  45.0068 106.3523 0003621 279.8523  80.1915 14.35234970336743
